STARLINK-31712          
1 59491U 24071H   26068.16595226 -.00003547  00000+0 -11947-3 0  9995
2 59491  42.9962 354.1129 0000836  63.8061 296.2877 15.27576127107998
PHISAT 2                
1 60470U 24149C   26068.78834181  .00008925  00000+0  31421-3 0  9996
2 60470  97.3806 148.6498 0001175 168.6230 191.5037 15.29548631 86792
